CCSDS_OMM_VERS = 2.0
CREATION_DATE  = 
ORIGINATOR     = 

OBJECT_NAME    = QIANFAN-99
OBJECT_ID      = 2025-233J
CENTER_NAME    = EARTH
REF_FRAME      = TEME
TIME_SYSTEM    = UTC
MEAN_ELEMENT_THEORY = SGP/SGP4

EPOCH          = 2025-11-08T19:01:53.916096
MEAN_MOTION    = 14.26206657
ECCENTRICITY   = .0015746
INCLINATION    = 88.9955
RA_OF_ASC_NODE = 65.9381
ARG_OF_PERICENTER = 140.5701
MEAN_ANOMALY   = 219.6642

EPHEMERIS_TYPE = 0
CLASSIFICATION_TYPE = U
NORAD_CAT_ID   = 66041
ELEMENT_SET_NO = 999
REV_AT_EPOCH   = 320
BSTAR          = .40222E-3
MEAN_MOTION_DOT = .979E-5
MEAN_MOTION_DDOT = 0

CCSDS_OMM_VERS = 2.0
CREATION_DATE  = 
ORIGINATOR     = 

OBJECT_NAME    = QIANFAN-100
OBJECT_ID      = 2025-233K
CENTER_NAME    = EARTH
REF_FRAME      = TEME
TIME_SYSTEM    = UTC
MEAN_ELEMENT_THEORY = SGP/SGP4

EPOCH          = 2025-11-08T19:01:43.853088
MEAN_MOTION    = 14.26222149
ECCENTRICITY   = .0016201
INCLINATION    = 88.9955
RA_OF_ASC_NODE = 65.9382
ARG_OF_PERICENTER = 142.1601
MEAN_ANOMALY   = 218.0735

EPHEMERIS_TYPE = 0
CLASSIFICATION_TYPE = U
NORAD_CAT_ID   = 66042
ELEMENT_SET_NO = 999
REV_AT_EPOCH   = 320
BSTAR          = .39699E-3
MEAN_MOTION_DOT = .967E-5
MEAN_MOTION_DDOT = 0

CCSDS_OMM_VERS = 2.0
CREATION_DATE  = 
ORIGINATOR     = 

OBJECT_NAME    = QIANFAN-101
OBJECT_ID      = 2025-233L
CENTER_NAME    = EARTH
REF_FRAME      = TEME
TIME_SYSTEM    = UTC
MEAN_ELEMENT_THEORY = SGP/SGP4

EPOCH          = 2025-11-08T18:56:34.231776
MEAN_MOTION    = 14.26639454
ECCENTRICITY   = .0016187
INCLINATION    = 88.9955
RA_OF_ASC_NODE = 65.9375
ARG_OF_PERICENTER = 140.3725
MEAN_ANOMALY   = 219.8655

EPHEMERIS_TYPE = 0
CLASSIFICATION_TYPE = U
NORAD_CAT_ID   = 66043
ELEMENT_SET_NO = 999
REV_AT_EPOCH   = 320
BSTAR          = .21692E-3
MEAN_MOTION_DOT = .539E-5
MEAN_MOTION_DDOT = 0

CCSDS_OMM_VERS = 2.0
CREATION_DATE  = 
ORIGINATOR     = 

OBJECT_NAME    = QIANFAN-102
OBJECT_ID      = 2025-233M
CENTER_NAME    = EARTH
REF_FRAME      = TEME
TIME_SYSTEM    = UTC
MEAN_ELEMENT_THEORY = SGP/SGP4

EPOCH          = 2025-11-08T19:01:33.733056
MEAN_MOTION    = 14.26226640
ECCENTRICITY   = .0016573
INCLINATION    = 88.9954
RA_OF_ASC_NODE = 65.9380
ARG_OF_PERICENTER = 142.2439
MEAN_ANOMALY   = 217.9921

EPHEMERIS_TYPE = 0
CLASSIFICATION_TYPE = U
NORAD_CAT_ID   = 66044
ELEMENT_SET_NO = 999
REV_AT_EPOCH   = 320
BSTAR          = .41308E-3
MEAN_MOTION_DOT = .1005E-4
MEAN_MOTION_DDOT = 0

CCSDS_OMM_VERS = 2.0
CREATION_DATE  = 
ORIGINATOR     = 

OBJECT_NAME    = QIANFAN-103
OBJECT_ID      = 2025-233N
CENTER_NAME    = EARTH
REF_FRAME      = TEME
TIME_SYSTEM    = UTC
MEAN_ELEMENT_THEORY = SGP/SGP4

EPOCH          = 2025-11-08T19:01:01.384896
MEAN_MOTION    = 14.26255854
ECCENTRICITY   = .0015957
INCLINATION    = 88.9955
RA_OF_ASC_NODE = 65.9381
ARG_OF_PERICENTER = 141.0740
MEAN_ANOMALY   = 219.1606

EPHEMERIS_TYPE = 0
CLASSIFICATION_TYPE = U
NORAD_CAT_ID   = 66045
ELEMENT_SET_NO = 999
REV_AT_EPOCH   = 320
BSTAR          = .41216E-3
MEAN_MOTION_DOT = .1004E-4
MEAN_MOTION_DDOT = 0

CCSDS_OMM_VERS = 2.0
CREATION_DATE  = 
ORIGINATOR     = 

OBJECT_NAME    = QIANFAN-104
OBJECT_ID      = 2025-233P
CENTER_NAME    = EARTH
REF_FRAME      = TEME
TIME_SYSTEM    = UTC
MEAN_ELEMENT_THEORY = SGP/SGP4

EPOCH          = 2025-11-08T19:00:37.802880
MEAN_MOTION    = 14.26276649
ECCENTRICITY   = .0015948
INCLINATION    = 88.9955
RA_OF_ASC_NODE = 65.9381
ARG_OF_PERICENTER = 143.2880
MEAN_ANOMALY   = 216.9410

EPHEMERIS_TYPE = 0
CLASSIFICATION_TYPE = U
NORAD_CAT_ID   = 66046
ELEMENT_SET_NO = 999
REV_AT_EPOCH   = 320
BSTAR          = .41542E-3
MEAN_MOTION_DOT = .1012E-4
MEAN_MOTION_DDOT = 0

CCSDS_OMM_VERS = 2.0
CREATION_DATE  = 
ORIGINATOR     = 

OBJECT_NAME    = QIANFAN-105
OBJECT_ID      = 2025-233Q
CENTER_NAME    = EARTH
REF_FRAME      = TEME
TIME_SYSTEM    = UTC
MEAN_ELEMENT_THEORY = SGP/SGP4

EPOCH          = 2025-11-08T18:59:52.315008
MEAN_MOTION    = 14.26334851
ECCENTRICITY   = .0016136
INCLINATION    = 88.9954
RA_OF_ASC_NODE = 65.9379
ARG_OF_PERICENTER = 143.3988
MEAN_ANOMALY   = 216.8311

EPHEMERIS_TYPE = 0
CLASSIFICATION_TYPE = U
NORAD_CAT_ID   = 66047
ELEMENT_SET_NO = 999
REV_AT_EPOCH   = 320
BSTAR          = .40593E-3
MEAN_MOTION_DOT = .99E-5
MEAN_MOTION_DDOT = 0

CCSDS_OMM_VERS = 2.0
CREATION_DATE  = 
ORIGINATOR     = 

OBJECT_NAME    = QIANFAN-106
OBJECT_ID      = 2025-233R
CENTER_NAME    = EARTH
REF_FRAME      = TEME
TIME_SYSTEM    = UTC
MEAN_ELEMENT_THEORY = SGP/SGP4

EPOCH          = 2025-11-08T18:59:58.063200
MEAN_MOTION    = 14.26318097
ECCENTRICITY   = .0016006
INCLINATION    = 88.9955
RA_OF_ASC_NODE = 65.9380
ARG_OF_PERICENTER = 143.0992
MEAN_ANOMALY   = 217.1306

EPHEMERIS_TYPE = 0
CLASSIFICATION_TYPE = U
NORAD_CAT_ID   = 66048
ELEMENT_SET_NO = 999
REV_AT_EPOCH   = 320
BSTAR          = .40108E-3
MEAN_MOTION_DOT = .978E-5
MEAN_MOTION_DDOT = 0

CCSDS_OMM_VERS = 2.0
CREATION_DATE  = 
ORIGINATOR     = 

OBJECT_NAME    = QIANFAN-107
OBJECT_ID      = 2025-233S
CENTER_NAME    = EARTH
REF_FRAME      = TEME
TIME_SYSTEM    = UTC
MEAN_ELEMENT_THEORY = SGP/SGP4

EPOCH          = 2025-11-08T18:59:34.310976
MEAN_MOTION    = 14.26346978
ECCENTRICITY   = .0016797
INCLINATION    = 88.9954
RA_OF_ASC_NODE = 65.9378
ARG_OF_PERICENTER = 141.2529
MEAN_ANOMALY   = 218.9873

EPHEMERIS_TYPE = 0
CLASSIFICATION_TYPE = U
NORAD_CAT_ID   = 66049
ELEMENT_SET_NO = 999
REV_AT_EPOCH   = 320
BSTAR          = .39935E-3
MEAN_MOTION_DOT = .975E-5
MEAN_MOTION_DDOT = 0

CCSDS_OMM_VERS = 2.0
CREATION_DATE  = 
ORIGINATOR     = 

OBJECT_NAME    = QIANFAN-108
OBJECT_ID      = 2025-233T
CENTER_NAME    = EARTH
REF_FRAME      = TEME
TIME_SYSTEM    = UTC
MEAN_ELEMENT_THEORY = SGP/SGP4

EPOCH          = 2025-11-08T18:59:09.064032
MEAN_MOTION    = 14.26359988
ECCENTRICITY   = .0016764
INCLINATION    = 88.9954
RA_OF_ASC_NODE = 65.9377
ARG_OF_PERICENTER = 142.9183
MEAN_ANOMALY   = 217.3172

EPHEMERIS_TYPE = 0
CLASSIFICATION_TYPE = U
NORAD_CAT_ID   = 66050
ELEMENT_SET_NO = 999
REV_AT_EPOCH   = 320
BSTAR          = .39943E-3
MEAN_MOTION_DOT = .975E-5
MEAN_MOTION_DDOT = 0

CCSDS_OMM_VERS = 2.0
CREATION_DATE  = 
ORIGINATOR     = 

OBJECT_NAME    = CZ-6A R/B
OBJECT_ID      = 2025-233U
CENTER_NAME    = EARTH
REF_FRAME      = TEME
TIME_SYSTEM    = UTC
MEAN_ELEMENT_THEORY = SGP/SGP4

EPOCH          = 2025-11-08T19:15:18.224928
MEAN_MOTION    = 14.57017301
ECCENTRICITY   = .0085404
INCLINATION    = 89.0293
RA_OF_ASC_NODE = 65.8593
ARG_OF_PERICENTER = 43.0923
MEAN_ANOMALY   = 317.6931

EPHEMERIS_TYPE = 0
CLASSIFICATION_TYPE = U
NORAD_CAT_ID   = 66051
ELEMENT_SET_NO = 999
REV_AT_EPOCH   = 327
BSTAR          = .10893E-3
MEAN_MOTION_DOT = .533E-5
MEAN_MOTION_DDOT = 0

CCSDS_OMM_VERS = 2.0
CREATION_DATE  = 
ORIGINATOR     = 

OBJECT_NAME    = 2025-234A
OBJECT_ID      = 2025-234A
CENTER_NAME    = EARTH
REF_FRAME      = TEME
TIME_SYSTEM    = UTC
MEAN_ELEMENT_THEORY = SGP/SGP4

EPOCH          = 2025-11-08T20:03:05.637024
MEAN_MOTION    = 15.22718360
ECCENTRICITY   = .0014599
INCLINATION    = 97.4603
RA_OF_ASC_NODE = 18.3447
ARG_OF_PERICENTER = 212.6479
MEAN_ANOMALY   = 147.3856

EPHEMERIS_TYPE = 0
CLASSIFICATION_TYPE = U
NORAD_CAT_ID   = 66053
ELEMENT_SET_NO = 999
REV_AT_EPOCH   = 315
BSTAR          = .18482E-2
MEAN_MOTION_DOT = .43366E-3
MEAN_MOTION_DDOT = 0

