QIANFAN-99              
1 66041U 25233J   25312.79298514  .00000979  00000+0  40222-3 0  9997
2 66041  88.9955  65.9381 0015746 140.5701 219.6642 14.26206657  3200
QIANFAN-100             
1 66042U 25233K   25312.79286867  .00000967  00000+0  39699-3 0  9999
2 66042  88.9955  65.9382 0016201 142.1601 218.0735 14.26222149  3206
QIANFAN-101             
1 66043U 25233L   25312.78928509  .00000539  00000+0  21692-3 0  9994
2 66043  88.9955  65.9375 0016187 140.3725 219.8655 14.26639454  3200
QIANFAN-102             
1 66044U 25233M   25312.79275154  .00001005  00000+0  41308-3 0  9992
2 66044  88.9954  65.9380 0016573 142.2439 217.9921 14.26226640  3202
QIANFAN-103             
1 66045U 25233N   25312.79237714  .00001004  00000+0  41216-3 0  9990
2 66045  88.9955  65.9381 0015957 141.0740 219.1606 14.26255854  3205
QIANFAN-104             
1 66046U 25233P   25312.79210420  .00001012  00000+0  41542-3 0  9997
2 66046  88.9955  65.9381 0015948 143.2880 216.9410 14.26276649  3208
QIANFAN-105             
1 66047U 25233Q   25312.79157772  .00000990  00000+0  40593-3 0  9997
2 66047  88.9954  65.9379 0016136 143.3988 216.8311 14.26334851  3204
QIANFAN-106             
1 66048U 25233R   25312.79164425  .00000978  00000+0  40108-3 0  9999
2 66048  88.9955  65.9380 0016006 143.0992 217.1306 14.26318097  3208
QIANFAN-107             
1 66049U 25233S   25312.79136934  .00000975  00000+0  39935-3 0  9997
2 66049  88.9954  65.9378 0016797 141.2529 218.9873 14.26346978  3205
QIANFAN-108             
1 66050U 25233T   25312.79107713  .00000975  00000+0  39943-3 0  9991
2 66050  88.9954  65.9377 0016764 142.9183 217.3172 14.26359988  3204
CZ-6A R/B               
1 66051U 25233U   25312.80229427  .00000533  00000+0  10893-3 0  9994
2 66051  89.0293  65.8593 0085404  43.0923 317.6931 14.57017301  3270
2025-234A               
1 66053U 25234A   25312.83548191  .00043366  00000+0  18482-2 0  9994
2 66053  97.4603  18.3447 0014599 212.6479 147.3856 15.22718360  3155
